COSMOS 2251 DEB         
1 34456U 93036SZ  17345.76912262  .00001392  00000-0  39273-3 0  9990
2 34456  74.0459 242.7089 0063367 295.4136 129.8576 14.45541109460619
